#aV2015 10 28  0  0  0.00000000     288 DD+AD WGS84 FIT  NGA
## 1868 259200.00000000   300.00000000 57323 0.0000000000000
+   31     1  2  3  4  5  6  7  8  9 11 12 13 14 15 16 17 18
+         19 20 21 22 23 24 25 26 27 28 29 30 31 32  0  0  0
+          0  0  0  0  0  0  0  0  0  0  0  0  0  0  0  0  0
+          0  0  0  0  0  0  0  0  0  0  0  0  0  0  0  0  0
+          0  0  0  0  0  0  0  0  0  0  0  0  0  0  0  0  0
++         2  2  2  2  2  2  2  2  2  2  2  2  2  2  2  2  2
++         2  2  2  2  2  2  2  2  2  2  2  2  2  2  0  0  0
++         0  0  0  0  0  0  0  0  0  0  0  0  0  0  0  0  0
++         0  0  0  0  0  0  0  0  0  0  0  0  0  0  0  0  0
++         0  0  0  0  0  0  0  0  0  0  0  0  0  0  0  0  0
%c cc cc ccc ccc cccc cccc cccc cccc ccccc ccccc ccccc ccccc
%c cc cc ccc ccc cccc cccc cccc cccc ccccc ccccc ccccc ccccc
%f  0.0000000  0.000000000  0.00000000000  0.000000000000000
%f  0.0000000  0.000000000  0.00000000000  0.000000000000000
%i    0    0    0    0      0      0      0      0         0
%i    0    0    0    0      0      0      0      0         0
/*      NGA, ST. LOUIS,MO.                                  
/*   EPHEMERIS COMPUTED FROM 2 DAYS OF DATA                 
/*   EPOCHA v2.4 SMOOTHER                                   
/*   G1762 IERS2010 SATAF SATAPC                            
*  2015 10 28  0 10  0.00000000
P  1 -13617.560285   9829.192905  20453.727811      3.240928                    
V  1  -2788.939024 -26057.726112  10825.517100      0.007708                    
P  2  13773.151483  15408.969059 -16526.924826    594.130317                    
V  2    308.561488  21709.799508  19598.250592      0.011606                    
P  3 -23115.558974  12579.927379   3671.137790     17.990405                    
V  3   2275.785187  -4936.104237  31257.080836     -0.022741                    
P  4 -15588.450990   -989.040298  21142.695561    -38.204986                    
V  4  -2346.005127 -27643.350435  -2721.277034     -0.053057                    
P  5  18571.873727   3598.721628 -18783.328872   -180.662754                    
V  5 -18634.594571  14714.562243 -15466.507696      0.038945                    
P  6   7342.849366  24278.146771  -7896.175074     84.624253                    
V  6  -1816.995020  10185.748616  29625.279914      0.068934                    
P  7  -6507.541432  22977.844262 -11068.917639    481.871375                    
V  7  -3241.701997 -14235.163039 -27709.250837     -0.009104                    
P  8 -24180.152954  -3443.540733  10468.209111    -10.279819                    
V  8 -10875.544612  -7924.562760 -27860.325381     -0.014683                    
P  9  -8246.287238  12986.857284 -21661.252638      2.337322                    
V  9 -24735.918051 -12010.361444   2204.721107      0.046388                    
P 11 -15700.915078   4889.092196  20310.274850   -612.742834                    
V 11 -11028.841554 -25036.252108  -2355.833335     -0.022842                    
P 12  23760.146339  -9911.631501   5947.947196    340.513387                    
V 12  -5547.953697   5718.391003  31345.334456      0.032066                    
P 13  23204.356299  12505.918079   2626.632116   -159.952828                    
V 13   1627.595881   3989.375543 -31865.473260     -0.028247                    
P 14  -7908.461601 -18625.197168  17536.033636     25.423288                    
V 14  19490.028782   9653.768791  19174.882197     -0.024173                    
P 15  24194.689720   1167.954491  11170.781748   -279.106577                    
V 15  12030.693041   8232.445565 -26333.891871     -0.019949                    
P 16 -17762.424007  -4394.274544 -19469.965224    -72.231375                    
V 16  20677.713486 -12875.852162 -15665.504464      0.037348                    
P 17   8634.153396  18279.978359  17642.625475   -192.263072                    
V 17 -19668.446031  -9214.744875  19308.568952     -0.010737                    
P 18  11622.120322 -20265.136237  12879.947157    447.162779                    
V 18  14672.293051  -6569.300076 -24834.165584      0.036392                    
P 19 -13301.954117   8809.298461  21104.000718   -522.054300                    
V 19 -23004.611142 -14467.353479  -7952.358629     -0.004534                    
P 20  22971.484438 -11389.399538  -7234.951114    366.490756                    
V 20  -4808.178992   8421.078811 -29083.334973      0.029438                    
P 21   2988.452352 -25002.772323  -7204.038467   -489.623226                    
V 21   4786.795224   9803.917334 -29490.646211     -0.025225                    
P 22  -1542.742578 -17558.955579  20060.763642    405.014356                    
V 22  21266.216714 -13498.330354 -10479.843938      0.037656                    
P 23 -20258.175032   3629.973670 -16855.380797   -141.234479                    
V 23 -18639.301054 -11050.745409  19394.041242     -0.020880                    
P 24  14491.645371  -6835.893354  21124.098238     -7.020506                    
V 24   3201.605207  26783.099655   6623.395137     -0.005974                    
P 25  18684.782651 -17721.696160  -6224.122540    -58.757956                    
V 25   7732.368392  -2486.390709  30945.203851     -0.055857                    
P 26  -9011.558210 -12265.227978 -21764.951933    -99.866099                    
V 26  22771.807443 -15668.027348   -587.063459     -0.141863                    
P 27 -23855.571385 -11823.968404   -529.784077     31.055008                    
V 27   1632.820270  -1932.475057 -31846.821336      0.031197                    
P 28  -3665.563753  17481.707033  20261.038242    477.415442                    
V 28 -21413.230982  11514.914498 -14335.584469      0.027175                    
P 29  11260.463713 -10518.839052 -21615.804697    641.722294                    
V 29  23803.781130  13655.251460   5786.725906      0.019023                    
P 30   -227.413795  26512.033864   -367.578669     47.969044                    
V 30  -3105.488732   -465.564712 -31654.631724      0.059186                    
P 31  -7014.041248 -23781.481014  -8899.347422    297.547578                    
V 31   2051.806327 -11662.513169  29460.835436     -0.014960                    
P 32 -22603.751323   1820.264142  13314.483457     -1.108626                    
V 32  13544.523573 -11081.687290  24935.563542      0.116940                    
EOF
